STARLINK-3971           
1 52642U 22052AW  26068.80484880 -.00001080  00000+0 -49779-4 0  9992
2 52642  53.2160 258.6072 0001392  84.1985 275.9166 15.08843045211141
SEDNA-2                 
1 63153U 25009DQ  26068.79893845  .00008085  00000+0  49393-3 0  9990
2 63153  97.4615 144.8075 0010309  53.0260 307.1912 15.10492622 63116
